STARLINK-5830
1 57065U 23088T   26092.83335647  .00051691  00000+0  31671-2 0  9993
2 57065  43.0004 336.4551 0000476 219.3565 346.5856 15.09426461  5764
